     2.10           G: GLONASS NAV DATA                     RINEX VERSION / TYPE
teqc  2015Jun23                         20220606 01:25:40UTCPGM / RUN BY / DATE
Linux 2.4.21-27.ELsmp|Opteron|gcc -static|Linux x86_64|=+   COMMENT
  2022     5    26    0.000000000000D+00                    CORR TO SYSTEM TIME
                                                            END OF HEADER
19 22  5 27 17 15  0.0-1.905458047986D-04-9.094947017729D-13 6.120000000000D+04
    1.695845410156D+04-4.065179824829D-01-0.000000000000D+00 0.000000000000D+00
    1.822748486328D+04-6.909542083740D-01 3.725290298462D-09 3.000000000000D+00
   -5.559788085938D+03-3.509275436401D+00-9.313225746155D-10 0.000000000000D+00
 4 22  5 27 17 15  0.0 1.435698941350D-04 1.818989403546D-12 6.135000000000D+04
   -4.977559082031D+03-2.738149642944D+00 9.313225746155D-10 0.000000000000D+00
    1.267009570312D+04 1.101415634155D+00 0.000000000000D+00 6.000000000000D+00
    2.160337402344D+04-1.279335975647D+00-2.793967723846D-09 0.000000000000D+00
14 22  5 27 17 45  0.0 2.549588680267D-05 0.000000000000D+00 6.300000000000D+04
   -8.963999023438D+03 1.321601867676D-01 9.313225746155D-10 0.000000000000D+00
    1.579305371094D+04-2.449289321899D+00 0.000000000000D+00-7.000000000000D+00
    1.793539892578D+04 2.222425460815D+00-2.793967723846D-09 0.000000000000D+00
18 22  5 27 17 45  0.0 1.182826235890D-04 9.094947017729D-13 6.300000000000D+04
    2.432534179688D+03-2.474652290344D+00 9.313225746155D-10 0.000000000000D+00
    1.309543212891D+04-1.670406341553D+00 3.725290298462D-09-3.000000000000D+00
   -2.175855566406D+04-1.276575088501D+00 0.000000000000D+00 0.000000000000D+00
 3 22  5 27 17 45  0.0 5.739741027355D-05 0.000000000000D+00 6.300000000000D+04
   -2.122123583984D+04-3.857498168945D-01 1.862645149231D-09 0.000000000000D+00
    1.357373486328D+04 3.907022476196D-01 0.000000000000D+00 5.000000000000D+00
    3.881851562500D+03-3.524384498596D+00-9.313225746155D-10 0.000000000000D+00
 4 22  5 27 17 45  0.0 1.435736194253D-04 1.818989403546D-12 6.300000000000D+04
   -9.429336425781D+03-2.175021171570D+00 9.313225746155D-10 0.000000000000D+00
    1.485588281250D+04 1.290215492249D+00 0.000000000000D+00 6.000000000000D+00
    1.849762353516D+04-2.149250984192D+00-1.862645149231D-09 0.000000000000D+00
15 22  5 27 17 45  0.0 9.583123028278D-05-0.000000000000D+00 6.300000000000D+04
   -1.922895996094D+03 1.600875854492D-01 1.862645149231D-09 0.000000000000D+00
    2.528913769531D+04-3.733272552490D-01 2.793967723846D-09 0.000000000000D+00
    2.774956542969D+03 3.538524627686D+00-1.862645149231D-09 0.000000000000D+00
19 22  5 27 17 45  0.0-1.905476674438D-04-9.094947017729D-13 6.300000000000D+04
    1.552579150391D+04-1.193880081177D+00 0.000000000000D+00 0.000000000000D+00
    1.660336132812D+04-1.069909095764D+00 4.656612873077D-09 3.000000000000D+00
   -1.157997119141D+04-3.136403083801D+00-0.000000000000D+00 0.000000000000D+00
14 22  5 27 18 15  0.0 2.549588680267D-05 0.000000000000D+00 6.480000000000D+04
   -9.074193359375D+03-2.730751037598D-01 9.313225746155D-10 0.000000000000D+00
    1.095232666016D+04-2.884367942810D+00-9.313225746155D-10-7.000000000000D+00
    2.119210839844D+04 1.372684478760D+00-1.862645149231D-09 0.000000000000D+00
18 22  5 27 18 15  0.0 1.182854175568D-04 9.094947017729D-13 6.480000000000D+04
   -2.422151855469D+03-2.878319740295D+00 1.862645149231D-09 0.000000000000D+00
    1.034267919922D+04-1.355097770691D+00 2.793967723846D-09-3.000000000000D+00
   -2.318578222656D+04-2.987842559814D-01 9.313225746155D-10 0.000000000000D+00
 3 22  5 27 18 15  0.0 5.739741027355D-05 0.000000000000D+00 6.480000000000D+04
   -2.120728417969D+04 3.808422088623D-01 1.862645149231D-09 0.000000000000D+00
    1.388740478516D+04-7.774734497070D-02-0.000000000000D+00 5.000000000000D+00
   -2.530330078125D+03-3.553853988647D+00-0.000000000000D+00 0.000000000000D+00
 4 22  5 27 18 15  0.0 1.435773447156D-04 1.818989403546D-12 6.480000000000D+04
   -1.271782617188D+04-1.462900161743D+00 1.862645149231D-09 0.000000000000D+00
    1.716594921875D+04 1.232220649719D+00-0.000000000000D+00 6.000000000000D+00
    1.396541503906D+04-2.854010581970D+00-1.862645149231D-09 0.000000000000D+00
15 22  5 27 18 15  0.0 9.583123028278D-05-0.000000000000D+00 6.480000000000D+04
   -1.736487792969D+03 8.351325988770D-03 1.862645149231D-09 0.000000000000D+00
    2.383215039062D+04-1.230599403381D+00 1.862645149231D-09 0.000000000000D+00
    8.954860839844D+03 3.283507347107D+00-1.862645149231D-09 0.000000000000D+00
19 22  5 27 18 15  0.0-1.905504614115D-04-9.094947017729D-13 6.480000000000D+04
    1.266543945312D+04-1.972894668579D+00 9.313225746155D-10 0.000000000000D+00
    1.453985937500D+04-1.177056312561D+00 3.725290298462D-09 3.000000000000D+00
   -1.670507617188D+04-2.521221160889D+00-0.000000000000D+00 0.000000000000D+00
 5 22  5 27 18 15  0.0 9.359326213598D-05 9.094947017729D-13 6.606000000000D+04
    2.796673828125D+03-2.522151947021D+00 0.000000000000D+00 0.000000000000D+00
    1.110296191406D+04 1.836654663086D+00 0.000000000000D+00 1.000000000000D+00
    2.280804345703D+04-5.870361328125D-01-2.793967723846D-09 0.000000000000D+00
 4 22  5 27 18 45  0.0 1.435810700059D-04 1.818989403546D-12 6.660000000000D+04
   -1.467277685547D+04-7.125196456909D-01 1.862645149231D-09 0.000000000000D+00
    1.912996728516D+04 9.059343338013D-01-0.000000000000D+00 6.000000000000D+00
    8.355367675781D+03-3.339031219482D+00-9.313225746155D-10 0.000000000000D+00
 3 22  5 27 18 45  0.0 5.739741027355D-05 0.000000000000D+00 6.660000000000D+04
   -1.995218847656D+04 9.784898757935D-01 1.862645149231D-09 0.000000000000D+00
    1.318745703125D+04-7.223606109619D-01-0.000000000000D+00 5.000000000000D+00
   -8.745989257812D+03-3.307333946228D+00 0.000000000000D+00 0.000000000000D+00
 5 22  5 27 18 45  0.0 9.359512478113D-05 9.094947017729D-13 6.660000000000D+04
   -1.331706054688D+03-2.034259796143D+00 9.313225746155D-10 0.000000000000D+00
    1.460004199219D+04 2.007905006409D+00-0.000000000000D+00 1.000000000000D+00
    2.088460986328D+04-1.536338806152D+00-2.793967723846D-09 0.000000000000D+00
15 22  5 27 18 45  0.0 9.583029896021D-05-0.000000000000D+00 6.660000000000D+04
   -2.018467773438D+03-3.514547348022D-01 1.862645149231D-09 0.000000000000D+00
    2.094501220703D+04-1.945250511169D+00 0.000000000000D+00 0.000000000000D+00
    1.444315576172D+04 2.775099754333D+00-2.793967723846D-09 0.000000000000D+00
19 22  5 27 18 45  0.0-1.905523240566D-04-9.094947017729D-13 6.660000000000D+04
    8.499160156250D+03-2.626154899597D+00 1.862645149231D-09 0.000000000000D+00
    1.252319238281D+04-1.023663520813D+00 3.725290298462D-09 3.000000000000D+00
   -2.053926660156D+04-1.711373329163D+00 0.000000000000D+00 0.000000000000D+00
 9 22  5 27 18 45  0.0 5.734339356422D-05 1.818989403546D-12 6.738000000000D+04
    1.258958837891D+04 6.930894851685D-01 1.862645149231D-09 0.000000000000D+00
    1.298824804688D+04 2.365882873535D+00 3.725290298462D-09-2.000000000000D+00
   -1.800358886719D+04 2.182063102722D+00-0.000000000000D+00 0.000000000000D+00
 5 22  5 27 19 15  0.0 9.359605610371D-05 9.094947017729D-13 6.840000000000D+04
   -4.446519042969D+03-1.413399696350D+00 1.862645149231D-09 0.000000000000D+00
    1.816957080078D+04 1.910868644714D+00-0.000000000000D+00 1.000000000000D+00
    1.734828320312D+04-2.367509841919D+00-1.862645149231D-09 0.000000000000D+00
 4 22  5 27 19 15  0.0 1.435847952962D-04 1.818989403546D-12 6.840000000000D+04
   -1.532797607422D+04-3.671550750732D-02 1.862645149231D-09 0.000000000000D+00
    2.028006103516D+04 3.356761932373D-01-9.313225746155D-10 6.000000000000D+00
    2.099870605469D+03-3.566438674927D+00-0.000000000000D+00 0.000000000000D+00
 3 22  5 27 19 15  0.0 5.739741027355D-05-0.000000000000D+00 6.840000000000D+04
   -1.782957324219D+04 1.336134910583D+00 1.862645149231D-09 0.000000000000D+00
    1.123698339844D+04-1.449553489685D+00-0.000000000000D+00 5.000000000000D+00
   -1.428190917969D+04-2.803464889526D+00 9.313225746155D-10 0.000000000000D+00
 9 22  5 27 19 15  0.0 5.734711885452D-05 2.728484105319D-12 6.840000000000D+04
    1.395039111328D+04 7.807178497314D-01 2.793967723846D-09 0.000000000000D+00
    1.663941015625D+04 1.666783332825D+00 3.725290298462D-09-2.000000000000D+00
   -1.343189111328D+04 2.864549636841D+00-0.000000000000D+00 0.000000000000D+00
15 22  5 27 19 15  0.0 9.583029896021D-05-0.000000000000D+00 6.840000000000D+04
   -3.084441894531D+03-8.482103347778D-01 9.313225746155D-10 0.000000000000D+00
    1.696871630859D+04-2.428694725037D+00-0.000000000000D+00 0.000000000000D+00
    1.881653417969D+04 2.052766799927D+00-2.793967723846D-09 0.000000000000D+00
19 22  5 27 19 15  0.0-1.905551180243D-04-9.094947017729D-13 6.840000000000D+04
    3.347938964844D+03-3.052777290344D+00 2.793967723846D-09 0.000000000000D+00
    1.097817089844D+04-6.656141281128D-01 2.793967723846D-09 3.000000000000D+00
   -2.278657763672D+04-7.694597244263D-01 9.313225746155D-10 0.000000000000D+00
 5 22  5 27 19 45  0.0 9.359698742628D-05 9.094947017729D-13 7.020000000000D+04
   -6.406312500000D+03-7.697982788086D-01 1.862645149231D-09 0.000000000000D+00
    2.130829541016D+04 1.530616760254D+00-9.313225746155D-10 1.000000000000D+00
    1.247133837891D+04-3.016211509705D+00-1.862645149231D-09 0.000000000000D+00
 4 22  5 27 19 45  0.0 1.435875892639D-04 1.818989403546D-12 7.020000000000D+04
   -1.490824902344D+04 4.680213928223D-01 1.862645149231D-09 0.000000000000D+00
    2.023150195312D+04-4.116535186768D-01-9.313225746155D-10 6.000000000000D+00
   -4.317942382812D+03-3.518118858337D+00 0.000000000000D+00 0.000000000000D+00
 3 22  5 27 19 45  0.0 5.739741027355D-05-0.000000000000D+00 7.020000000000D+04
   -1.530465087891D+04 1.424433708191D+00 9.313225746155D-10 0.000000000000D+00
    7.986712402344D+03-2.147340774536D+00-0.000000000000D+00 5.000000000000D+00
   -1.870713232422D+04-2.081298828125D+00 1.862645149231D-09 0.000000000000D+00
